STARLINK-5360           
1 54846U 22177AC  26013.52733071 -.00000322  00000+0 -87414-5 0  9993
2 54846  43.0041  72.5378 0001349 265.7968  94.2720 15.02533222168669
STARLINK-5061           
1 54847U 22177AD  26013.88684670  .00001858  00000+0  15247-3 0  9999
2 54847  43.0021  44.9210 0000466 266.0134  94.0655 15.02559305169019
STARLINK-5432           
1 54848U 22177AE  26013.39474972 -.00000302  00000+0 -72864-5 0  9993
2 54848  43.0044  61.1084 0001389 261.2888  98.7797 15.02533230168783
STARLINK-5087           
1 54850U 22177AG  26013.52326507  .00000047  00000+0  18550-4 0  9996
2 54850  43.0047  60.3508 0001275 280.2941  79.7758 15.02536418168806
STARLINK-5084           
1 54851U 22177AH  26013.52657947  .00001029  00000+0  91169-4 0  9990
2 54851  43.0032  60.3806 0001197 274.4114  85.6592 15.02549232168802
STARLINK-5418           
1 54852U 22177AJ  26013.11775260 -.00000830  00000+0 -46382-4 0  9993
2 54852  43.0043  62.4687 0001301 268.0964  91.9730 15.02528684168749
STARLINK-5427           
1 54853U 22177AK  26013.51993612 -.00000848  00000+0 -47697-4 0  9990
2 54853  43.0044  60.3320 0001300 268.0854  91.9839 15.02537097168804
STARLINK-5416           
1 54855U 22177AM  26013.51327383  .00000163  00000+0  27168-4 0  9997
2 54855  43.0031  60.2813 0001116 281.3233  78.7484 15.02538760168809
STARLINK-5086           
1 54856U 22177AN  26013.82568757  .00000707  00000+0  67429-4 0  9992
2 54856  43.0043  58.3248 0001401 275.2828  84.7855 15.02530183168857
STARLINK-5078           
1 54857U 22177AP  26013.50441030  .00001481  00000+0  12474-3 0  9991
2 54857  43.0037  60.2193 0001038 267.4987  92.5737 15.02525876168801
STARLINK-5407           
1 54858U 22177AQ  26013.17424321 -.00001361  00000+0 -85746-4 0  9991
2 54858  43.0041  62.0312 0001439 272.2043  87.8635 15.02523320168752
STARLINK-5409           
1 54859U 22177AR  26013.82901913 -.00002174  00000+0 -14594-3 0  9996
2 54859  43.0036  58.3489 0001290 261.2840  98.7857 15.02528514168856
STARLINK-5406           
1 54860U 22177AS  26013.15868978 -.00001557  00000+0 -10019-3 0  9999
2 54860  43.0043  61.9185 0001465 265.8821  94.1854 15.02533651168756
STARLINK-5400           
1 54861U 22177AT  26013.17533750 -.00000651  00000+0 -33139-4 0  9992
2 54861  43.0046  62.0454 0001252 270.8250  89.2449 15.02536862168759
STARLINK-5403           
1 54862U 22177AU  26013.39808199  .00000215  00000+0  30960-4 0  9992
2 54862  43.0042  61.1481 0001337 261.2478  98.8213 15.02532607168787
STARLINK-5405           
1 54863U 22177AV  26013.83234666 -.00000346  00000+0 -10518-4 0  9998
2 54863  43.0033  58.3733 0001228 270.5996  89.4706 15.02532617168855
