[{"OBJECT_NAME":"STARLINK-5360","OBJECT_ID":"2022-177AC","EPOCH":"2026-01-13T12:39:21.373344","MEAN_MOTION":15.02533222,"ECCENTRICITY":0.00013492,"INCLINATION":43.0041,"RA_OF_ASC_NODE":72.5378,"ARG_OF_PERICENTER":265.7968,"MEAN_ANOMALY":94.272,"EPHEMERIS_TYPE":0,"CLASSIFICATION_TYPE":"U","NORAD_CAT_ID":54846,"ELEMENT_SET_NO":999,"REV_AT_EPOCH":16866,"BSTAR":-8.741362e-6,"MEAN_MOTION_DOT":-3.22e-6,"MEAN_MOTION_DDOT":0},{"OBJECT_NAME":"STARLINK-5061","OBJECT_ID":"2022-177AD","EPOCH":"2026-01-13T21:17:03.554880","MEAN_MOTION":15.02559305,"ECCENTRICITY":4.661e-5,"INCLINATION":43.0021,"RA_OF_ASC_NODE":44.921,"ARG_OF_PERICENTER":266.0134,"MEAN_ANOMALY":94.0655,"EPHEMERIS_TYPE":0,"CLASSIFICATION_TYPE":"U","NORAD_CAT_ID":54847,"ELEMENT_SET_NO":999,"REV_AT_EPOCH":16901,"BSTAR":0.00015247157,"MEAN_MOTION_DOT":1.858e-5,"MEAN_MOTION_DDOT":0},{"OBJECT_NAME":"STARLINK-5432","OBJECT_ID":"2022-177AE","EPOCH":"2026-01-13T09:28:26.375808","MEAN_MOTION":15.0253323,"ECCENTRICITY":0.0001389,"INCLINATION":43.0044,"RA_OF_ASC_NODE":61.1084,"ARG_OF_PERICENTER":261.2888,"MEAN_ANOMALY":98.7797,"EPHEMERIS_TYPE":0,"CLASSIFICATION_TYPE":"U","NORAD_CAT_ID":54848,"ELEMENT_SET_NO":999,"REV_AT_EPOCH":16878,"BSTAR":-7.2864e-6,"MEAN_MOTION_DOT":-3.02e-6,"MEAN_MOTION_DDOT":0},{"OBJECT_NAME":"STARLINK-5087","OBJECT_ID":"2022-177AG","EPOCH":"2026-01-13T12:33:30.102048","MEAN_MOTION":15.02536418,"ECCENTRICITY":0.00012758,"INCLINATION":43.0047,"RA_OF_ASC_NODE":60.3508,"ARG_OF_PERICENTER":280.2941,"MEAN_ANOMALY":79.7758,"EPHEMERIS_TYPE":0,"CLASSIFICATION_TYPE":"U","NORAD_CAT_ID":54850,"ELEMENT_SET_NO":999,"REV_AT_EPOCH":16880,"BSTAR":1.8549816e-5,"MEAN_MOTION_DOT":4.7e-7,"MEAN_MOTION_DDOT":0},{"OBJECT_NAME":"STARLINK-5084","OBJECT_ID":"2022-177AH","EPOCH":"2026-01-13T12:38:16.466208","MEAN_MOTION":15.02549232,"ECCENTRICITY":0.00011972,"INCLINATION":43.0032,"RA_OF_ASC_NODE":60.3806,"ARG_OF_PERICENTER":274.4114,"MEAN_ANOMALY":85.6592,"EPHEMERIS_TYPE":0,"CLASSIFICATION_TYPE":"U","NORAD_CAT_ID":54851,"ELEMENT_SET_NO":999,"REV_AT_EPOCH":16880,"BSTAR":9.116855e-5,"MEAN_MOTION_DOT":1.029e-5,"MEAN_MOTION_DDOT":0},{"OBJECT_NAME":"STARLINK-5418","OBJECT_ID":"2022-177AJ","EPOCH":"2026-01-13T02:49:33.824640","MEAN_MOTION":15.02528684,"ECCENTRICITY":0.00013019,"INCLINATION":43.0043,"RA_OF_ASC_NODE":62.4687,"ARG_OF_PERICENTER":268.0964,"MEAN_ANOMALY":91.973,"EPHEMERIS_TYPE":0,"CLASSIFICATION_TYPE":"U","NORAD_CAT_ID":54852,"ELEMENT_SET_NO":999,"REV_AT_EPOCH":16874,"BSTAR":-4.6381889e-5,"MEAN_MOTION_DOT":-8.3e-6,"MEAN_MOTION_DDOT":0},{"OBJECT_NAME":"STARLINK-5427","OBJECT_ID":"2022-177AK","EPOCH":"2026-01-13T12:28:42.480768","MEAN_MOTION":15.02537097,"ECCENTRICITY":0.00013009,"INCLINATION":43.0044,"RA_OF_ASC_NODE":60.332,"ARG_OF_PERICENTER":268.0854,"MEAN_ANOMALY":91.9839,"EPHEMERIS_TYPE":0,"CLASSIFICATION_TYPE":"U","NORAD_CAT_ID":54853,"ELEMENT_SET_NO":999,"REV_AT_EPOCH":16880,"BSTAR":-4.7696997e-5,"MEAN_MOTION_DOT":-8.48e-6,"MEAN_MOTION_DDOT":0},{"OBJECT_NAME":"STARLINK-5416","OBJECT_ID":"2022-177AM","EPOCH":"2026-01-13T12:19:06.858912","MEAN_MOTION":15.0253876,"ECCENTRICITY":0.00011163,"INCLINATION":43.0031,"RA_OF_ASC_NODE":60.2813,"ARG_OF_PERICENTER":281.3233,"MEAN_ANOMALY":78.7484,"EPHEMERIS_TYPE":0,"CLASSIFICATION_TYPE":"U","NORAD_CAT_ID":54855,"ELEMENT_SET_NO":999,"REV_AT_EPOCH":16880,"BSTAR":2.7167662e-5,"MEAN_MOTION_DOT":1.63e-6,"MEAN_MOTION_DDOT":0},{"OBJECT_NAME":"STARLINK-5086","OBJECT_ID":"2022-177AN","EPOCH":"2026-01-13T19:48:59.406048","MEAN_MOTION":15.02530183,"ECCENTRICITY":0.00014013,"INCLINATION":43.0043,"RA_OF_ASC_NODE":58.3248,"ARG_OF_PERICENTER":275.2828,"MEAN_ANOMALY":84.7855,"EPHEMERIS_TYPE":0,"CLASSIFICATION_TYPE":"U","NORAD_CAT_ID":54856,"ELEMENT_SET_NO":999,"REV_AT_EPOCH":16885,"BSTAR":6.7428699e-5,"MEAN_MOTION_DOT":7.07e-6,"MEAN_MOTION_DDOT":0},{"OBJECT_NAME":"STARLINK-5078","OBJECT_ID":"2022-177AP","EPOCH":"2026-01-13T12:06:21.049920","MEAN_MOTION":15.02525876,"ECCENTRICITY":0.00010383,"INCLINATION":43.0037,"RA_OF_ASC_NODE":60.2193,"ARG_OF_PERICENTER":267.4987,"MEAN_ANOMALY":92.5737,"EPHEMERIS_TYPE":0,"CLASSIFICATION_TYPE":"U","NORAD_CAT_ID":54857,"ELEMENT_SET_NO":999,"REV_AT_EPOCH":16880,"BSTAR":0.00012474024,"MEAN_MOTION_DOT":1.481e-5,"MEAN_MOTION_DDOT":0},{"OBJECT_NAME":"STARLINK-5407","OBJECT_ID":"2022-177AQ","EPOCH":"2026-01-13T04:10:54.613344","MEAN_MOTION":15.0252332,"ECCENTRICITY":0.0001439,"INCLINATION":43.0041,"RA_OF_ASC_NODE":62.0312,"ARG_OF_PERICENTER":272.2043,"MEAN_ANOMALY":87.8635,"EPHEMERIS_TYPE":0,"CLASSIFICATION_TYPE":"U","NORAD_CAT_ID":54858,"ELEMENT_SET_NO":999,"REV_AT_EPOCH":16875,"BSTAR":-8.5745914e-5,"MEAN_MOTION_DOT":-1.361e-5,"MEAN_MOTION_DDOT":0},{"OBJECT_NAME":"STARLINK-5409","OBJECT_ID":"2022-177AR","EPOCH":"2026-01-13T19:53:47.252832","MEAN_MOTION":15.02528514,"ECCENTRICITY":0.00012908,"INCLINATION":43.0036,"RA_OF_ASC_NODE":58.3489,"ARG_OF_PERICENTER":261.284,"MEAN_ANOMALY":98.7857,"EPHEMERIS_TYPE":0,"CLASSIFICATION_TYPE":"U","NORAD_CAT_ID":54859,"ELEMENT_SET_NO":999,"REV_AT_EPOCH":16885,"BSTAR":-0.0001459426,"MEAN_MOTION_DOT":-2.174e-5,"MEAN_MOTION_DDOT":0},{"OBJECT_NAME":"STARLINK-5406","OBJECT_ID":"2022-177AS","EPOCH":"2026-01-13T03:48:30.796992","MEAN_MOTION":15.02533651,"ECCENTRICITY":0.00014655,"INCLINATION":43.0043,"RA_OF_ASC_NODE":61.9185,"ARG_OF_PERICENTER":265.8821,"MEAN_ANOMALY":94.1854,"EPHEMERIS_TYPE":0,"CLASSIFICATION_TYPE":"U","NORAD_CAT_ID":54860,"ELEMENT_SET_NO":999,"REV_AT_EPOCH":16875,"BSTAR":-0.00010018993,"MEAN_MOTION_DOT":-1.557e-5,"MEAN_MOTION_DDOT":0},{"OBJECT_NAME":"STARLINK-5400","OBJECT_ID":"2022-177AT","EPOCH":"2026-01-13T04:12:29.160000","MEAN_MOTION":15.02536862,"ECCENTRICITY":0.0001252,"INCLINATION":43.0046,"RA_OF_ASC_NODE":62.0454,"ARG_OF_PERICENTER":270.825,"MEAN_ANOMALY":89.2449,"EPHEMERIS_TYPE":0,"CLASSIFICATION_TYPE":"U","NORAD_CAT_ID":54861,"ELEMENT_SET_NO":999,"REV_AT_EPOCH":16875,"BSTAR":-3.313902e-5,"MEAN_MOTION_DOT":-6.51e-6,"MEAN_MOTION_DDOT":0},{"OBJECT_NAME":"STARLINK-5403","OBJECT_ID":"2022-177AU","EPOCH":"2026-01-13T09:33:14.283936","MEAN_MOTION":15.02532607,"ECCENTRICITY":0.0001337,"INCLINATION":43.0042,"RA_OF_ASC_NODE":61.1481,"ARG_OF_PERICENTER":261.2478,"MEAN_ANOMALY":98.8213,"EPHEMERIS_TYPE":0,"CLASSIFICATION_TYPE":"U","NORAD_CAT_ID":54862,"ELEMENT_SET_NO":999,"REV_AT_EPOCH":16878,"BSTAR":3.096e-5,"MEAN_MOTION_DOT":2.15e-6,"MEAN_MOTION_DDOT":0},{"OBJECT_NAME":"STARLINK-5405","OBJECT_ID":"2022-177AV","EPOCH":"2026-01-13T19:58:34.751424","MEAN_MOTION":15.02532617,"ECCENTRICITY":0.00012286,"INCLINATION":43.0033,"RA_OF_ASC_NODE":58.3733,"ARG_OF_PERICENTER":270.5996,"MEAN_ANOMALY":89.4706,"EPHEMERIS_TYPE":0,"CLASSIFICATION_TYPE":"U","NORAD_CAT_ID":54863,"ELEMENT_SET_NO":999,"REV_AT_EPOCH":16885,"BSTAR":-1.0518075e-5,"MEAN_MOTION_DOT":-3.46e-6,"MEAN_MOTION_DDOT":0}]
